OBJECT_NAME,OBJECT_ID,EPOCH,MEAN_MOTION,ECCENTRICITY,INCLINATION,RA_OF_ASC_NODE,ARG_OF_PERICENTER,MEAN_ANOMALY,EPHEMERIS_TYPE,CLASSIFICATION_TYPE,NORAD_CAT_ID,ELEMENT_SET_NO,REV_AT_EPOCH,BSTAR,MEAN_MOTION_DOT,MEAN_MOTION_DDOT
QIANFAN-126,2026-075T,2026-06-13T01:29:06.797472,13.49703611,.00100197,88.9886,321.3776,17.3742,342.7749,0,U,68653,999,927,-.3212059E+1,-.189349E-1,0
HULIANWANG DIGUI-164,2026-076A,2026-06-12T19:41:31.217280,13.24415212,.00021014,86.4968,45.3558,85.0290,275.1084,0,U,68656,999,879,-.19106585E-4,.6E-7,0
HULIANWANG DIGUI-165,2026-076B,2026-06-14T11:24:00.971136,13.24414478,.0001945,86.4989,44.8070,92.0554,268.0803,0,U,68657,999,901,.58867E-4,.4E-6,0
HULIANWANG DIGUI-166,2026-076C,2026-06-14T11:13:09.308640,13.24412123,.0001944,86.4930,44.7582,91.2532,268.8825,0,U,68658,999,901,.71757E-4,.45E-6,0
HULIANWANG DIGUI-167,2026-076D,2026-06-14T11:02:15.150048,13.24414402,.0001948,86.4984,44.7980,91.2234,268.9124,0,U,68659,999,901,.86999E-4,.52E-6,0
HULIANWANG DIGUI-168,2026-076E,2026-06-14T10:51:22.112064,13.24415004,.0001943,86.4966,44.7793,91.8099,268.3258,0,U,68660,999,900,.8115E-4,.49E-6,0
STARLINK-37195,2026-077A,2026-06-14T12:30:26.065728,15.33456162,.0002184,97.2850,36.7416,107.4830,252.6651,0,U,68662,999,999,.61682E-3,.19898E-3,0
STARLINK-37222,2026-077B,2026-06-14T04:32:46.280256,15.33441907,.00024296,97.2853,36.4310,109.9423,250.2082,0,U,68663,999,994,.5415225E-3,.17447E-3,0
STARLINK-37153,2026-077C,2026-06-14T09:18:35.188992,15.33445577,.0001695,97.2848,36.6208,91.2909,268.8528,0,U,68664,999,997,.50319E-3,.16205E-3,0
STARLINK-37171,2026-077D,2026-06-14T04:28:49.239264,15.33421667,.00022543,97.2851,36.4320,121.4567,238.6896,0,U,68665,999,994,.67196274E-3,.21666E-3,0
STARLINK-37109,2026-077E,2026-06-14T09:06:50.584032,15.33447526,.0001896,97.2862,36.6320,90.3793,269.7667,0,U,68666,999,997,.1175E-2,.38055E-3,0
STARLINK-36295,2026-077F,2026-06-14T04:21:01.444608,15.33439956,.00019082,97.2852,36.4421,98.9398,261.2061,0,U,68667,999,994,.38675162E-3,.1243E-3,0
STARLINK-37221,2026-077G,2026-06-14T08:31:36.297408,15.33446582,.0001949,97.2849,36.6627,93.4408,266.7058,0,U,68668,999,997,.41667E-3,.13402E-3,0
STARLINK-37302,2026-077H,2026-06-14T08:55:06.519936,15.33462358,.0002139,97.2859,36.6422,94.6240,265.5247,0,U,68669,999,997,.1121E-2,.36311E-3,0
STARLINK-37298,2026-077J,2026-06-14T04:17:06.440928,15.33445469,.00016584,97.2836,36.4447,87.9657,272.1775,0,U,68670,999,994,.52872594E-3,.17033E-3,0
STARLINK-37224,2026-077K,2026-06-14T08:51:10.954656,15.33442496,.0002226,97.2858,36.6463,99.5390,260.6104,0,U,68671,999,997,.69553E-3,.22445E-3,0
STARLINK-37296,2026-077L,2026-06-14T08:47:16.108224,15.33443637,.0002253,97.2853,36.6485,96.6487,263.5012,0,U,68672,999,997,.77682E-3,.25087E-3,0
STARLINK-37316,2026-077M,2026-06-14T08:43:21.097632,15.33442398,.0001959,97.2856,36.6539,93.5110,266.6357,0,U,68673,999,997,.6037E-3,.19464E-3,0
STARLINK-36672,2026-077N,2026-06-14T08:39:26.191584,15.33441949,.0001909,97.2848,36.6545,94.2202,265.9259,0,U,68674,999,997,.54507E-3,.17562E-3,0
STARLINK-36669,2026-077P,2026-06-14T08:35:31.238880,15.33445840,.0001905,97.2853,36.6604,89.6479,270.4982,0,U,68675,999,997,.51088E-3,.16455E-3,0
STARLINK-37312,2026-077Q,2026-06-14T05:08:00.456288,15.33439910,.0001557,97.2856,36.5500,93.9145,266.2276,0,U,68676,999,995,.2464E-3,.7887E-4,0
STARLINK-36168,2026-077R,2026-06-14T05:19:44.593824,15.33464987,.0001794,97.2854,36.5369,87.7494,272.3955,0,U,68677,999,995,.65495E-3,.21142E-3,0
STARLINK-37122,2026-077S,2026-06-14T05:15:50.283936,15.33440103,.0001513,97.2856,36.5422,93.0602,267.0814,0,U,68678,999,995,.32386E-3,.10393E-3,0
STARLINK-37310,2026-077T,2026-06-14T03:37:57.168768,15.33448054,.00011913,97.2852,36.4785,110.7205,249.4166,0,U,68679,999,994,.75014733E-3,.24223E-3,0
STARLINK-37306,2026-077U,2026-06-14T05:00:11.851200,15.33469917,.00016569,97.2856,36.5562,94.3995,265.7437,0,U,68680,999,995,.63997684E-3,.20659E-3,0
STARLINK-37307,2026-077V,2026-06-14T05:04:05.270304,15.33454197,.0001366,97.2845,36.5511,112.2623,247.8764,0,U,68681,999,995,.57504E-3,.18541E-3,0
STARLINK-37300,2026-077W,2026-06-14T12:34:21.325152,15.33450693,.0002015,97.2853,36.8963,84.0945,276.0527,0,U,68682,999,1000,.74739E-3,.24136E-3,0
STARLINK-37304,2026-077X,2026-06-14T12:38:16.310688,15.33448566,.0002369,97.2840,36.8921,79.3273,280.8236,0,U,68683,999,1000,.51696E-3,.16654E-3,0
STARLINK-37287,2026-077Y,2026-06-14T12:42:11.108736,15.33451940,.0002084,97.2853,36.8876,84.3651,275.7829,0,U,68684,999,1000,.76181E-3,.24605E-3,0
STARLINK-36278,2026-077Z,2026-06-14T09:13:19.257024,15.75258780,.0002072,97.2854,39.0694,84.3701,275.7801,0,U,68685,999,1013,.13472E-2,.206368E-2,0
