QIANFAN-126             
1 68653U 26075T   26164.06188423 -.01893490  00000+0 -32121+1 0  9993
2 68653  88.9886 321.3776 0010019  17.3742 342.7749 13.49703611  9270
HULIANWANG DIGUI-164    
1 68656U 26076A   26163.82050020  .00000006  00000+0 -19107-4 0  9995
2 68656  86.4968  45.3558 0002101  85.0290 275.1084 13.24415212  8798
HULIANWANG DIGUI-165    
1 68657U 26076B   26165.47501124  .00000040  00000+0  58867-4 0  9998
2 68657  86.4989  44.8070 0001945  92.0554 268.0803 13.24414478  9010
HULIANWANG DIGUI-166    
1 68658U 26076C   26165.46746885  .00000045  00000+0  71757-4 0  9991
2 68658  86.4930  44.7582 0001944  91.2532 268.8825 13.24412123  9017
HULIANWANG DIGUI-167    
1 68659U 26076D   26165.45989757  .00000052  00000+0  86999-4 0  9990
2 68659  86.4984  44.7980 0001948  91.2234 268.9124 13.24414402  9017
HULIANWANG DIGUI-168    
1 68660U 26076E   26165.45233926  .00000049  00000+0  81150-4 0  9992
2 68660  86.4966  44.7793 0001943  91.8099 268.3258 13.24415004  9001
STARLINK-37195          
1 68662U 26077A   26165.52113502  .00019898  00000+0  61682-3 0  9999
2 68662  97.2850  36.7416 0002184 107.4830 252.6651 15.33456162  9996
STARLINK-37222          
1 68663U 26077B   26165.18942454  .00017447  00000+0  54152-3 0  9990
2 68663  97.2853  36.4310 0002429 109.9423 250.2082 15.33441907  9945
STARLINK-37153          
1 68664U 26077C   26165.38790728  .00016205  00000+0  50319-3 0  9990
2 68664  97.2848  36.6208 0001695  91.2909 268.8528 15.33445577  9974
STARLINK-37171          
1 68665U 26077D   26165.18668101  .00021666  00000+0  67196-3 0  9996
2 68665  97.2851  36.4320 0002254 121.4567 238.6896 15.33421667  9944
STARLINK-37109          
1 68666U 26077E   26165.37975213  .00038055  00000+0  11750-2 0  9997
2 68666  97.2862  36.6320 0001896  90.3793 269.7667 15.33447526  9971
STARLINK-36295          
1 68667U 26077F   26165.18126672  .00012430  00000+0  38675-3 0  9999
2 68667  97.2852  36.4421 0001908  98.9398 261.2061 15.33439956  9940
STARLINK-37221          
1 68668U 26077G   26165.35528122  .00013402  00000+0  41667-3 0  9990
2 68668  97.2849  36.6627 0001949  93.4408 266.7058 15.33446582  9976
STARLINK-37302          
1 68669U 26077H   26165.37160324  .00036311  00000+0  11210-2 0  9993
2 68669  97.2859  36.6422 0002139  94.6240 265.5247 15.33462358  9976
STARLINK-37298          
1 68670U 26077J   26165.17854677  .00017033  00000+0  52873-3 0  9995
2 68670  97.2836  36.4447 0001658  87.9657 272.1775 15.33445469  9941
STARLINK-37224          
1 68671U 26077K   26165.36887679  .00022445  00000+0  69553-3 0  9991
2 68671  97.2858  36.6463 0002226  99.5390 260.6104 15.33442496  9979
STARLINK-37296          
1 68672U 26077L   26165.36615866  .00025087  00000+0  77682-3 0  9996
2 68672  97.2853  36.6485 0002253  96.6487 263.5012 15.33443637  9972
STARLINK-37316          
1 68673U 26077M   26165.36343863  .00019464  00000+0  60370-3 0  9990
2 68673  97.2856  36.6539 0001959  93.5110 266.6357 15.33442398  9976
STARLINK-36672          
1 68674U 26077N   26165.36071981  .00017562  00000+0  54507-3 0  9992
2 68674  97.2848  36.6545 0001909  94.2202 265.9259 15.33441949  9974
STARLINK-36669          
1 68675U 26077P   26165.35800045  .00016455  00000+0  51088-3 0  9994
2 68675  97.2853  36.6604 0001905  89.6479 270.4982 15.33445840  9975
STARLINK-37312          
1 68676U 26077Q   26165.21389417  .00007887  00000+0  24640-3 0  9998
2 68676  97.2856  36.5500 0001557  93.9145 266.2276 15.33439910  9952
STARLINK-36168          
1 68677U 26077R   26165.22204391  .00021142  00000+0  65495-3 0  9990
2 68677  97.2854  36.5369 0001794  87.7494 272.3955 15.33464987  9959
STARLINK-37122          
1 68678U 26077S   26165.21933199  .00010393  00000+0  32386-3 0  9994
2 68678  97.2856  36.5422 0001513  93.0602 267.0814 15.33440103  9951
STARLINK-37310          
1 68679U 26077T   26165.15135612  .00024223  00000+0  75015-3 0  9995
2 68679  97.2852  36.4785 0001191 110.7205 249.4166 15.33448054  9943
STARLINK-37306          
1 68680U 26077U   26165.20847050  .00020659  00000+0  63998-3 0  9995
2 68680  97.2856  36.5562 0001656  94.3995 265.7437 15.33469917  9956
STARLINK-37307          
1 68681U 26077V   26165.21117211  .00018541  00000+0  57504-3 0  9999
2 68681  97.2845  36.5511 0001366 112.2623 247.8764 15.33454197  9953
STARLINK-37300          
1 68682U 26077W   26165.52385793  .00024136  00000+0  74739-3 0  9992
2 68682  97.2853  36.8963 0002015  84.0945 276.0527 15.33450693 10008
STARLINK-37304          
1 68683U 26077X   26165.52657767  .00016654  00000+0  51696-3 0  9999
2 68683  97.2840  36.8921 0002369  79.3273 280.8236 15.33448566 10008
STARLINK-37287          
1 68684U 26077Y   26165.52929524  .00024605  00000+0  76181-3 0  9994
2 68684  97.2853  36.8876 0002084  84.3651 275.7829 15.33451940 10003
STARLINK-36278          
1 68685U 26077Z   26165.38425066  .00206368  00000+0  13472-2 0  9992
2 68685  97.2854  39.0694 0002072  84.3701 275.7801 15.75258780 10138
